{"type": "FeatureCollection", "features": [{"type": "Feature", "properties": {"norad_id": 28054, "name": "DMSP 5D-3 F16 (USA 172)", "group": "weather", "lat": -74.32421810499676, "lon": 52.36158247293867, "alt_km": 847.0505165229524, "timestamp": "2025-12-26T09:30:53.269747+00:00", "meta": {"OBJECT_NAME": "DMSP 5D-3 F16 (USA 172)", "OBJECT_ID": "2003-048A", "EPOCH": "2025-12-26T03:28:35.160096", "MEAN_MOTION": 14.14428795, "ECCENTRICITY": 0.0006244, "INCLINATION": 99.0038, "RA_OF_ASC_NODE": 17.7067, "ARG_OF_PERICENTER": 277.7422, "MEAN_ANOMALY": 164.7472, "EPHEMERIS_TYPE": 0, "CLASSIFICATION_TYPE": "U", "NORAD_CAT_ID": 28054, "ELEMENT_SET_NO": 999, "REV_AT_EPOCH": 14502, "BSTAR": 7.8174e-05, "MEAN_MOTION_DOT": 1.04e-06, "MEAN_MOTION_DDOT": 0}, "tle": {"line1": "1 28054U 03048A   25360.14485139  .00000104  00000+0  78174-4 0  9990", "line2": "2 28054  99.0038  17.7067 0006244 277.7422 164.7472 14.14428795145023"}}, "geometry": {"type": "Point", "coordinates": [52.36158247293867, -74.32421810499676]}}, {"type": "Feature", "properties": {"norad_id": 28912, "name": "METEOSAT-9 (MSG-2)", "group": "weather", "lat": -6.462985287384398, "lon": -78.36846232944518, "alt_km": 35616.890243506525, "timestamp": "2025-12-26T09:30:53.269797+00:00", "meta": {"OBJECT_NAME": "METEOSAT-9 (MSG-2)", "OBJECT_ID": "2005-049B", "EPOCH": "2025-12-24T18:27:10.310976", "MEAN_MOTION": 1.00268275, "ECCENTRICITY": 0.00719695, "INCLINATION": 8.9553, "RA_OF_ASC_NODE": 55.846, "ARG_OF_PERICENTER": 282.2974, "MEAN_ANOMALY": 77.0088, "EPHEMERIS_TYPE": 0, "CLASSIFICATION_TYPE": "U", "NORAD_CAT_ID": 28912, "ELEMENT_SET_NO": 999, "REV_AT_EPOCH": 524, "BSTAR": 0, "MEAN_MOTION_DOT": 1.45e-06, "MEAN_MOTION_DDOT": 0}, "tle": {"line1": "1 28912U 05049B   25358.76886934  .00000145  00000+0  00000+0 0  9992", "line2": "2 28912   8.9553  55.8460 0071969 282.2974  77.0088  1.00268275  5240"}}, "geometry": {"type": "Point", "coordinates": [-78.36846232944518, -6.462985287384398]}}, {"type": "Feature", "properties": {"norad_id": 29522, "name": "DMSP 5D-3 F17 (USA 191)", "group": "weather", "lat": -65.91622485327363, "lon": 165.37231271355358, "alt_km": 846.4974997453255, "timestamp": "2025-12-26T09:30:53.269816+00:00", "meta": {"OBJECT_NAME": "DMSP 5D-3 F17 (USA 191)", "OBJECT_ID": "2006-050A", "EPOCH": "2025-12-26T03:15:28.433664", "MEAN_MOTION": 14.14925128, "ECCENTRICITY": 0.0009993, "INCLINATION": 98.7393, "RA_OF_ASC_NODE": 5.2459, "ARG_OF_PERICENTER": 185.0637, "MEAN_ANOMALY": 175.0437, "EPHEMERIS_TYPE": 0, "CLASSIFICATION_TYPE": "U", "NORAD_CAT_ID": 29522, "ELEMENT_SET_NO": 999, "REV_AT_EPOCH": 98794, "BSTAR": 0.00010284, "MEAN_MOTION_DOT": 1.56e-06, "MEAN_MOTION_DDOT": 0}, "tle": {"line1": "1 29522U 06050A   25360.13574576  .00000156  00000+0  10284-3 0  9994", "line2": "2 29522  98.7393   5.2459 0009993 185.0637 175.0437 14.14925128987947"}}, "geometry": {"type": "Point", "coordinates": [165.37231271355358, -65.91622485327363]}}, {"type": "Feature", "properties": {"norad_id": 32958, "name": "FENGYUN 3A", "group": "weather", "lat": -6.784071082302764, "lon": 118.59650496802945, "alt_km": 829.735957338974, "timestamp": "2025-12-26T09:30:53.269830+00:00", "meta": {"OBJECT_NAME": "FENGYUN 3A", "OBJECT_ID": "2008-026A", "EPOCH": "2025-12-25T20:47:43.211904", "MEAN_MOTION": 14.19518678, "ECCENTRICITY": 0.00076064, "INCLINATION": 98.6714, "RA_OF_ASC_NODE": 299.1179, "ARG_OF_PERICENTER": 267.7947, "MEAN_ANOMALY": 92.2359, "EPHEMERIS_TYPE": 0, "CLASSIFICATION_TYPE": "U", "NORAD_CAT_ID": 32958, "ELEMENT_SET_NO": 999, "REV_AT_EPOCH": 91081, "BSTAR": 8.5573603e-05, "MEAN_MOTION_DOT": 1.37e-06, "MEAN_MOTION_DDOT": 0}, "tle": {"line1": "1 32958U 08026A   25359.86647236  .00000137  00000+0  85574-4 0  9992", "line2": "2 32958  98.6714 299.1179 0007606 267.7947  92.2359 14.19518678910812"}}, "geometry": {"type": "Point", "coordinates": [118.59650496802945, -6.784071082302764]}}, {"type": "Feature", "properties": {"norad_id": 35491, "name": "GOES 14", "group": "weather", "lat": 0.7143735758787269, "lon": 119.49045997616669, "alt_km": 35837.944656749874, "timestamp": "2025-12-26T09:30:53.269844+00:00", "meta": {"OBJECT_NAME": "GOES 14", "OBJECT_ID": "2009-033A", "EPOCH": "2025-12-26T04:39:38.472192", "MEAN_MOTION": 1.00097065, "ECCENTRICITY": 7.35e-05, "INCLINATION": 1.2368, "RA_OF_ASC_NODE": 85.2657, "ARG_OF_PERICENTER": 193.3176, "MEAN_ANOMALY": 128.039, "EPHEMERIS_TYPE": 0, "CLASSIFICATION_TYPE": "U", "NORAD_CAT_ID": 35491, "ELEMENT_SET_NO": 999, "REV_AT_EPOCH": 485, "BSTAR": 0, "MEAN_MOTION_DOT": 4.1e-07, "MEAN_MOTION_DDOT": 0}, "tle": {"line1": "1 35491U 09033A   25360.19419528  .00000041  00000+0  00000+0 0  9995", "line2": "2 35491   1.2368  85.2657 0000735 193.3176 128.0390  1.00097065  4850"}}, "geometry": {"type": "Point", "coordinates": [119.49045997616669, 0.7143735758787269]}}, {"type": "Feature", "properties": {"norad_id": 35951, "name": "DMSP 5D-3 F18 (USA 210)", "group": "weather", "lat": 70.21849746799332, "lon": -177.48878783586156, "alt_km": 834.9284708128343, "timestamp": "2025-12-26T09:30:53.269855+00:00", "meta": {"OBJECT_NAME": "DMSP 5D-3 F18 (USA 210)", "OBJECT_ID": "2009-057A", "EPOCH": "2025-12-26T02:13:08.847264", "MEAN_MOTION": 14.14777898, "ECCENTRICITY": 0.001166, "INCLINATION": 98.8851, "RA_OF_ASC_NODE": 336.4274, "ARG_OF_PERICENTER": 27.4197, "MEAN_ANOMALY": 332.7589, "EPHEMERIS_TYPE": 0, "CLASSIFICATION_TYPE": "U", "NORAD_CAT_ID": 35951, "ELEMENT_SET_NO": 999, "REV_AT_EPOCH": 83511, "BSTAR": 0.00016337, "MEAN_MOTION_DOT": 2.71e-06, "MEAN_MOTION_DDOT": 0}, "tle": {"line1": "1 35951U 09057A   25360.09246351  .00000271  00000+0  16337-3 0  9992", "line2": "2 35951  98.8851 336.4274 0011660  27.4197 332.7589 14.14777898835118"}}, "geometry": {"type": "Point", "coordinates": [-177.48878783586156, 70.21849746799332]}}, {"type": "Feature", "properties": {"norad_id": 36411, "name": "EWS-G2 (GOES 15)", "group": "weather", "lat": -0.48077777027351043, "lon": -60.760604350756005, "alt_km": 35766.46659602764, "timestamp": "2025-12-26T09:30:53.269868+00:00", "meta": {"OBJECT_NAME": "EWS-G2 (GOES 15)", "OBJECT_ID": "2010-008A", "EPOCH": "2025-12-26T01:20:32.726112", "MEAN_MOTION": 1.00270948, "ECCENTRICITY": 0.0005629, "INCLINATION": 0.8445, "RA_OF_ASC_NODE": 86.073, "ARG_OF_PERICENTER": 179.6685, "MEAN_ANOMALY": 270.5509, "EPHEMERIS_TYPE": 0, "CLASSIFICATION_TYPE": "U", "NORAD_CAT_ID": 36411, "ELEMENT_SET_NO": 999, "REV_AT_EPOCH": 5790, "BSTAR": 0, "MEAN_MOTION_DOT": 6e-07, "MEAN_MOTION_DDOT": 0}, "tle": {"line1": "1 36411U 10008A   25360.05593433  .00000060  00000+0  00000+0 0  9996", "line2": "2 36411   0.8445  86.0730 0005629 179.6685 270.5509  1.00270948 57906"}}, "geometry": {"type": "Point", "coordinates": [-60.760604350756005, -0.48077777027351043]}}, {"type": "Feature", "properties": {"norad_id": 36744, "name": "COMS 1", "group": "weather", "lat": -4.156997404167797, "lon": 6.085544012994394, "alt_km": 35786.22392979177, "timestamp": "2025-12-26T09:30:53.269881+00:00", "meta": {"OBJECT_NAME": "COMS 1", "OBJECT_ID": "2010-032A", "EPOCH": "2025-12-25T12:42:15.782976", "MEAN_MOTION": 1.00270082, "ECCENTRICITY": 8.877e-05, "INCLINATION": 4.3689, "RA_OF_ASC_NODE": 77.8525, "ARG_OF_PERICENTER": 213.8569, "MEAN_ANOMALY": 121.3153, "EPHEMERIS_TYPE": 0, "CLASSIFICATION_TYPE": "U", "NORAD_CAT_ID": 36744, "ELEMENT_SET_NO": 999, "REV_AT_EPOCH": 4934, "BSTAR": 0, "MEAN_MOTION_DOT": -3.24e-06, "MEAN_MOTION_DDOT": 0}, "tle": {"line1": "1 36744U 10032A   25359.52934934 -.00000324  00000+0  00000+0 0  9991", "line2": "2 36744   4.3689  77.8525 0000887 213.8569 121.3153  1.00270082 49343"}}, "geometry": {"type": "Point", "coordinates": [6.085544012994394, -4.156997404167797]}}, {"type": "Feature", "properties": {"norad_id": 37214, "name": "FENGYUN 3B", "group": "weather", "lat": 71.12479152701808, "lon": 12.88976344149092, "alt_km": 842.6112076515265, "timestamp": "2025-12-26T09:30:53.269893+00:00", "meta": {"OBJECT_NAME": "FENGYUN 3B", "OBJECT_ID": "2010-059A", "EPOCH": "2025-12-26T04:29:16.835424", "MEAN_MOTION": 14.14794518, "ECCENTRICITY": 0.0021466, "INCLINATION": 98.9886, "RA_OF_ASC_NODE": 40.2568, "ARG_OF_PERICENTER": 319.0314, "MEAN_ANOMALY": 127.9246, "EPHEMERIS_TYPE": 0, "CLASSIFICATION_TYPE": "U", "NORAD_CAT_ID": 37214, "ELEMENT_SET_NO": 999, "REV_AT_EPOCH": 78296, "BSTAR": 0.0001968, "MEAN_MOTION_DOT": 3.35e-06, "MEAN_MOTION_DDOT": 0}, "tle": {"line1": "1 37214U 10059A   25360.18700041  .00000335  00000+0  19680-3 0  9996", "line2": "2 37214  98.9886  40.2568 0021466 319.0314 127.9246 14.14794518782969"}}, "geometry": {"type": "Point", "coordinates": [12.88976344149092, 71.12479152701808]}}, {"type": "Feature", "properties": {"norad_id": 37849, "name": "SUOMI NPP", "group": "weather", "lat": 33.76997373997199, "lon": 123.54640581912619, "alt_km": 823.7250940460781, "timestamp": "2025-12-26T09:30:53.269904+00:00", "meta": {"OBJECT_NAME": "SUOMI NPP", "OBJECT_ID": "2011-061A", "EPOCH": "2025-12-22T15:10:21.732672", "MEAN_MOTION": 14.19516903, "ECCENTRICITY": 0.00024883, "INCLINATION": 98.7787, "RA_OF_ASC_NODE": 293.8852, "ARG_OF_PERICENTER": 103.0781, "MEAN_ANOMALY": 257.0673, "EPHEMERIS_TYPE": 0, "CLASSIFICATION_TYPE": "U", "NORAD_CAT_ID": 37849, "ELEMENT_SET_NO": 999, "REV_AT_EPOCH": 73339, "BSTAR": 6.3406935e-05, "MEAN_MOTION_DOT": 8.9e-07, "MEAN_MOTION_DDOT": 0}, "tle": {"line1": "1 37849U 11061A   25356.63219598  .00000089  00000+0  63407-4 0  9994", "line2": "2 37849  98.7787 293.8852 0002488 103.0781 257.0673 14.19516903733392"}}, "geometry": {"type": "Point", "coordinates": [123.54640581912619, 33.76997373997199]}}]}